BEIDOU-3 M11 (C25)      
1 43603U 18067B   25102.93890332  .00000013  00000+0  00000+0 0  9997
2 43603  54.1924 195.5955 0004132  20.6992 339.3526  1.86227428 45134
BEIDOU-3 M15 (C34)      
1 43648U 18078B   25103.05340794 -.00000068  00000+0  00000+0 0  9995
2 43648  54.4696 315.0234 0005141  37.9788 322.0882  1.86232409 44167
BEIDOU-3 M17 (C36)      
1 43706U 18093A   25103.74486143  .00000019  00000+0  00000+0 0  9997
2 43706  54.1859 196.8661 0008251 286.4412  73.5060  1.86228556 43544
BEIDOU-3 M18 (C37)      
1 43707U 18093B   25102.53386156  .00000006  00000+0  00000+0 0  9993
2 43707  54.1868 196.8988 0006510 320.4756  39.5062  1.86229997 43514
BEIDOU-3 IGSO-1 (C38)   
1 44204U 19023A   25103.45419449 -.00000225  00000+0  00000+0 0  9998
2 44204  58.0877  42.0907 0021416 227.2774 214.8628  1.00265348  2909
BEIDOU-2 G8 (C01)       
1 44231U 19027A   25103.92085326 -.00000239  00000+0  00000+0 0  9992
2 44231   1.5290  74.7726 0005458 255.5283 348.0277  1.00275951 21776
BEIDOU-3 M24 (C46)      
1 44542U 19061A   25103.14148998  .00000013  00000+0  00000+0 0  9993
2 44542  54.4139 197.2322 0007599   3.7383 356.3002  1.86229066 37781
BEIDOU-3 M23 (C45)      
1 44543U 19061B   25103.97470788  .00000020  00000+0  00000+0 0  9998
2 44543  54.4121 197.1729 0004533 348.8876 122.4793  1.86229396 37806
