[
    {
        "OBJECT_NAME": "BEIDOU-3 M11",
        "OBJECT_ID": "2018-067B",
        "EPOCH": "2025-04-12T22:32:01.246848",
        "MEAN_MOTION": 1.86227428,
        "ECCENTRICITY": 0.0004132,
        "INCLINATION": 54.1924,
        "RA_OF_ASC_NODE": 195.5955,
        "ARG_OF_PERICENTER": 20.6992,
        "MEAN_ANOMALY": 339.3526,
        "EPHEMERIS_TYPE": 0,
        "CLASSIFICATION_TYPE": "U",
        "NORAD_CAT_ID": 43603,
        "ELEMENT_SET_NO": 999,
        "REV_AT_EPOCH": 4513,
        "BSTAR": 0,
        "MEAN_MOTION_DOT": 1.3e-07,
        "MEAN_MOTION_DDOT": 0
    },
    {
        "OBJECT_NAME": "BEIDOU-3 M15",
        "OBJECT_ID": "2018-078B",
        "EPOCH": "2025-04-13T01:16:54.446016",
        "MEAN_MOTION": 1.86232409,
        "ECCENTRICITY": 0.0005141,
        "INCLINATION": 54.4696,
        "RA_OF_ASC_NODE": 315.0234,
        "ARG_OF_PERICENTER": 37.9788,
        "MEAN_ANOMALY": 322.0882,
        "EPHEMERIS_TYPE": 0,
        "CLASSIFICATION_TYPE": "U",
        "NORAD_CAT_ID": 43648,
        "ELEMENT_SET_NO": 999,
        "REV_AT_EPOCH": 4416,
        "BSTAR": 0,
        "MEAN_MOTION_DOT": -6.8e-07,
        "MEAN_MOTION_DDOT": 0
    },
    {
        "OBJECT_NAME": "BEIDOU-3 M17",
        "OBJECT_ID": "2018-093A",
        "EPOCH": "2025-04-13T17:52:36.027552",
        "MEAN_MOTION": 1.86228556,
        "ECCENTRICITY": 0.0008251,
        "INCLINATION": 54.1859,
        "RA_OF_ASC_NODE": 196.8661,
        "ARG_OF_PERICENTER": 286.4412,
        "MEAN_ANOMALY": 73.506,
        "EPHEMERIS_TYPE": 0,
        "CLASSIFICATION_TYPE": "U",
        "NORAD_CAT_ID": 43706,
        "ELEMENT_SET_NO": 999,
        "REV_AT_EPOCH": 4354,
        "BSTAR": 0,
        "MEAN_MOTION_DOT": 1.9e-07,
        "MEAN_MOTION_DDOT": 0
    },
    {
        "OBJECT_NAME": "BEIDOU-3 M18",
        "OBJECT_ID": "2018-093B",
        "EPOCH": "2025-04-12T12:48:45.638784",
        "MEAN_MOTION": 1.86229997,
        "ECCENTRICITY": 0.000651,
        "INCLINATION": 54.1868,
        "RA_OF_ASC_NODE": 196.8988,
        "ARG_OF_PERICENTER": 320.4756,
        "MEAN_ANOMALY": 39.5062,
        "EPHEMERIS_TYPE": 0,
        "CLASSIFICATION_TYPE": "U",
        "NORAD_CAT_ID": 43707,
        "ELEMENT_SET_NO": 999,
        "REV_AT_EPOCH": 4351,
        "BSTAR": 0,
        "MEAN_MOTION_DOT": 6e-08,
        "MEAN_MOTION_DDOT": 0
    },
    {
        "OBJECT_NAME": "BEIDOU-3 IGSO-1",
        "OBJECT_ID": "2019-023A",
        "EPOCH": "2025-04-13T10:54:02.403936",
        "MEAN_MOTION": 1.00265348,
        "ECCENTRICITY": 0.0021416,
        "INCLINATION": 58.0877,
        "RA_OF_ASC_NODE": 42.0907,
        "ARG_OF_PERICENTER": 227.2774,
        "MEAN_ANOMALY": 214.8628,
        "EPHEMERIS_TYPE": 0,
        "CLASSIFICATION_TYPE": "U",
        "NORAD_CAT_ID": 44204,
        "ELEMENT_SET_NO": 999,
        "REV_AT_EPOCH": 290,
        "BSTAR": 0,
        "MEAN_MOTION_DOT": -2.25e-06,
        "MEAN_MOTION_DDOT": 0
    },
    {
        "OBJECT_NAME": "BEIDOU-2 G8",
        "OBJECT_ID": "2019-027A",
        "EPOCH": "2025-04-13T22:06:01.721664",
        "MEAN_MOTION": 1.00275951,
        "ECCENTRICITY": 0.0005458,
        "INCLINATION": 1.529,
        "RA_OF_ASC_NODE": 74.7726,
        "ARG_OF_PERICENTER": 255.5283,
        "MEAN_ANOMALY": 348.0277,
        "EPHEMERIS_TYPE": 0,
        "CLASSIFICATION_TYPE": "U",
        "NORAD_CAT_ID": 44231,
        "ELEMENT_SET_NO": 999,
        "REV_AT_EPOCH": 2177,
        "BSTAR": 0,
        "MEAN_MOTION_DOT": -2.39e-06,
        "MEAN_MOTION_DDOT": 0
    },
    {
        "OBJECT_NAME": "BEIDOU-3 M24",
        "OBJECT_ID": "2019-061A",
        "EPOCH": "2025-04-13T03:23:44.734272",
        "MEAN_MOTION": 1.86229066,
        "ECCENTRICITY": 0.0007599,
        "INCLINATION": 54.4139,
        "RA_OF_ASC_NODE": 197.2322,
        "ARG_OF_PERICENTER": 3.7383,
        "MEAN_ANOMALY": 356.3002,
        "EPHEMERIS_TYPE": 0,
        "CLASSIFICATION_TYPE": "U",
        "NORAD_CAT_ID": 44542,
        "ELEMENT_SET_NO": 999,
        "REV_AT_EPOCH": 3778,
        "BSTAR": 0,
        "MEAN_MOTION_DOT": 1.3e-07,
        "MEAN_MOTION_DDOT": 0
    },
    {
        "OBJECT_NAME": "BEIDOU-3 M23",
        "OBJECT_ID": "2019-061B",
        "EPOCH": "2025-04-13T23:23:34.760832",
        "MEAN_MOTION": 1.86229396,
        "ECCENTRICITY": 0.0004533,
        "INCLINATION": 54.4121,
        "RA_OF_ASC_NODE": 197.1729,
        "ARG_OF_PERICENTER": 348.8876,
        "MEAN_ANOMALY": 122.4793,
        "EPHEMERIS_TYPE": 0,
        "CLASSIFICATION_TYPE": "U",
        "NORAD_CAT_ID": 44543,
        "ELEMENT_SET_NO": 999,
        "REV_AT_EPOCH": 3780,
        "BSTAR": 0,
        "MEAN_MOTION_DOT": 2e-07,
        "MEAN_MOTION_DDOT": 0
    }
]